{"type":"FeatureCollection","features":[{"type":"Feature","properties":{"name":"Blue Course Drive","osm_node_ids":[783645865,4089938684,106262022,110945702,106262016,4416554769,4416554808,110945699,4612543880,110945698,110454079,3724194843,4612543874,110945696,110945695,4612543875,110945693,3724194882,110901403,3724194513,4416344519,3724182306,110537476,3724183756,3724183549,106209860,4089938686,2762597936,10994782324,410804218,3724183736,3905911979,110895749,3752265273,110945692,110945691,783645560,110945688,3751955481,2766175214,110945686,2766174788,110945684,5662260423,5662260424,106250257,106242218,2673328119,110945683,2673328111,110945681,2673328118,5662260425,106215146,5662260426,110945679,110945678,2673328115,110945676,2673328120,110945675,106171221,110945674,2673328116,3469821546,110945672,2673328114,105991969,110945670,4685990949,2673328123,110945668,439941381,439941278,110945667,3331334449,3469821532,441261568,2776594923,106186429,2776594980,2849740845,2849740842,2776594873,110942796,2673289671,7870868604,2849740841,2849740848,2849740846,2849740847,110945666,110945664,2849740844,2670499351,2677961744,3469821533,2677961753,2677961721,2677961746,2677961669,4612098944,2677961668,4612098946,4612098941,365202913,365202912,365202911,365202910,3469821528,365202909,365202908,365202907,2676400607,9747575467,365202906,365202905,9747575468,365202904,365202903,365202901,365202900,365202899,365202898,365202897,365202896,365202895,365202894,365202893,365202892,365202891,365202890,365202889,4210866993,365202888,9747575483,4210867011,9747575482,9747575485,9747575488,365202877,365202872,365202869,365202866,365202865,365202864,365202862,365202861,365202860,365202859,365202858,365202853,365202852,365202851,365202849,365202848,365202847,2673836608,2673836610,2673836614,2762631816,365202846,4591980605,365202842,9747576321,9747576322,9747576324,9747576330,9747576331,365202836,365202835,9747576333,365202834,365202833,365202832,9747576334,365202831,365202830,365202829,365202828,365202827,365202826,365202825,365202824,365202823,365202822,365202821,365202820,365202819,365202818,365202817,365202816,365202815,365202814,365202813,365202812,365202811,365202809,365202808,365202807,365202806,365202805,365202803,365202802,365202801,365202800,365202799,2674288265,3469821520],"osm_way_ids":[35024158,261172652,261737314,261768220,262146198,262146199,262147285,262147287,263555058,263555063,264407563,271299567,339765959,339765960,339765974,339765998,339766081,339766123,339766166,417740325,421307711,469573762,1057759595,1061069841,1448108321,1448108323]},"geometry":{"type":"LineString","coordinates":[[-77.8607162,40.7695692],[-77.8608132,40.769671],[-77.8610427,40.7699119],[-77.8611954,40.7700602],[-77.8613416,40.7701958],[-77.8614804,40.7703121],[-77.861646,40.7704472],[-77.8617366,40.7705152],[-77.8618975,40.7706315],[-77.8621355,40.7707885],[-77.8622184,40.7708375],[-77.8622947,40.7708827],[-77.862507,40.7710048],[-77.8626727,40.7710906],[-77.8628681,40.7711833],[-77.8630143,40.7712513],[-77.8632222,40.7713402],[-77.8634401,40.7714245],[-77.8635306,40.7714555],[-77.8636218,40.7714854],[-77.8638518,40.7715575],[-77.8640543,40.7716149],[-77.8641475,40.7716402],[-77.8642402,40.7716653],[-77.8646981,40.7717886],[-77.8647947,40.7718149],[-77.8648845,40.7718394],[-77.8658454,40.7720948],[-77.8658874,40.7721063],[-77.8661304,40.772173],[-77.866154,40.7721789],[-77.8661808,40.7721865],[-77.8662454,40.7722037],[-77.8663436,40.7722299],[-77.8664643,40.7722522],[-77.8665515,40.772266],[-77.8666507,40.7722766],[-77.8667526,40.7722837],[-77.8668237,40.7722842],[-77.8669243,40.7722847],[-77.8670483,40.7722786],[-77.8671865,40.772267],[-77.8673347,40.7722411],[-77.8674108,40.7722254],[-77.867484,40.7722102],[-77.8676297,40.7721801],[-77.8684646,40.7719953],[-77.8688334,40.771913],[-77.8690828,40.7718612],[-77.8692531,40.7718297],[-77.8693986,40.7718099],[-77.8695307,40.7717967],[-77.8696145,40.7717907],[-77.8696722,40.7717866],[-77.8697995,40.7717841],[-77.8699311,40.7717815],[-77.8700906,40.7717845],[-77.8702388,40.7717957],[-77.8703602,40.7718069],[-77.8704782,40.7718221],[-77.8706318,40.7718475],[-77.8707947,40.7718795],[-77.8709027,40.7719069],[-77.8710147,40.7719384],[-77.8711823,40.7719892],[-77.8713768,40.7720623],[-77.8716349,40.7721811],[-77.8718032,40.7722715],[-77.8719293,40.7723477],[-77.8720688,40.7724411],[-77.8722143,40.7725559],[-77.8723745,40.7726966],[-77.8724966,40.7728154],[-77.8725925,40.7729063],[-77.8733703,40.7736523],[-77.8735889,40.7738767],[-77.8742105,40.7745166],[-77.8742501,40.7745562],[-77.8743828,40.7746953],[-77.8744842,40.7747985],[-77.8745746,40.7748949],[-77.875026,40.7753581],[-77.8755228,40.7758688],[-77.8757286,40.7760856],[-77.8758098,40.7761699],[-77.8758886,40.776254],[-77.875979,40.776341],[-77.8760296,40.7763915],[-77.8764588,40.7768342],[-77.8765653,40.7769396],[-77.8766871,40.7770458],[-77.8768534,40.7771858],[-77.87698,40.777285],[-77.8775121,40.7776734],[-77.8781213,40.7781078],[-77.8788623,40.77856],[-77.8789983,40.7786463],[-77.8791434,40.7787435],[-77.8794138,40.778935],[-77.8797454,40.7791662],[-77.8800987,40.7794492],[-77.8801412,40.7794889],[-77.880237,40.7795784],[-77.8803372,40.7796701],[-77.8803572,40.7796924],[-77.8804115,40.779744],[-77.8806382,40.7799488],[-77.8808766,40.7801653],[-77.88115,40.7804228],[-77.8812216,40.7804907],[-77.8813497,40.7806136],[-77.8815769,40.7808298],[-77.8818055,40.7810286],[-77.8820228,40.781191],[-77.8821331,40.7812689],[-77.882361,40.7814071],[-77.8824711,40.7814678],[-77.8825928,40.7815346],[-77.8828377,40.78165],[-77.882963,40.781703],[-77.8833523,40.781856],[-77.883476,40.7819058],[-77.8837362,40.7820077],[-77.8839938,40.7821071],[-77.8843499,40.7822445],[-77.8845046,40.7823068],[-77.8848857,40.7824559],[-77.8850564,40.7825228],[-77.8852907,40.7826194],[-77.8855251,40.7827274],[-77.88576,40.7828537],[-77.885983,40.7829876],[-77.886124,40.783081],[-77.8863397,40.7832362],[-77.8864448,40.7833216],[-77.8865819,40.7834474],[-77.886746,40.7836103],[-77.8869176,40.7837806],[-77.8872306,40.7841093],[-77.8875738,40.7844633],[-77.8879187,40.7848193],[-77.8883432,40.7852594],[-77.8887688,40.7857019],[-77.8890268,40.785967],[-77.8891955,40.7861478],[-77.8893695,40.7863259],[-77.8896275,40.7865897],[-77.8897965,40.7867656],[-77.8900547,40.7870346],[-77.8903097,40.7872973],[-77.8905634,40.787558],[-77.8907069,40.787715],[-77.8908112,40.7878161],[-77.8910422,40.7880979],[-77.8911865,40.7882948],[-77.8913679,40.788561],[-77.8914809,40.788749],[-77.8915904,40.7889568],[-77.8916845,40.789164],[-77.8917386,40.7892975],[-77.8917994,40.7894554],[-77.8918333,40.7895549],[-77.8918627,40.7896403],[-77.8919362,40.7899122],[-77.8919669,40.7900451],[-77.8920065,40.7902545],[-77.8920355,40.7904764],[-77.892051,40.7906915],[-77.8920577,40.7909105],[-77.8920518,40.7911271],[-77.8920425,40.7912361],[-77.8920309,40.7913487],[-77.8920203,40.7914517],[-77.8920015,40.7915631],[-77.8919616,40.7917757],[-77.8919096,40.79199],[-77.8918504,40.7922022],[-77.891773,40.7924165],[-77.8917314,40.7925205],[-77.8916882,40.792623],[-77.8915917,40.7928301],[-77.8914801,40.793035],[-77.8913627,40.7932339],[-77.8912361,40.7934312],[-77.8911675,40.793532],[-77.8910257,40.7937174],[-77.8908666,40.793906],[-77.890705,40.7940844],[-77.890535,40.7942619],[-77.8903579,40.7944374],[-77.8901875,40.7946109],[-77.8900084,40.7947922],[-77.8898394,40.7949639],[-77.8896597,40.7951456],[-77.8894981,40.7953119],[-77.8893179,40.7954929],[-77.8891524,40.7956616],[-77.8890646,40.7957514],[-77.8889002,40.7959348],[-77.8887457,40.7961176],[-77.8885985,40.7963045],[-77.8884479,40.7965014],[-77.8883194,40.7966868],[-77.888196,40.7968797],[-77.8880679,40.7970853],[-77.8879433,40.7972769],[-77.8878306,40.7974568],[-77.8877885,40.7975121],[-77.8877316,40.7976122]]}},{"type":"Feature","properties":{"name":"Circleville Road","osm_node_ids":[3469821520,456587035,4682568458,410712745,2738768037,410712746,3421777504,3421777171,13691341264,3421777508,14031969401,3421777169,7721825315,3421777517,4682568459,3421777542,4682568460,4682568461,3421777509,4682568462,4682568465,3421777533,3421777514,3421777535,4682568466,4682568467,3421777516,3421777188,3421777502,3421777526,3421777519,3421777179,3421777528,4682568468,3421777541,3421777532,3421777501,4682568469,4682568470,3421777167,4682568471,3421777165,3421777170,3421777534,3421777506,3421777173,3421777543,2696851471,3421777512,3421777515,3421777530,455754528,4742325017,6381807436,4696399533,3421748218],"osm_way_ids":[261322484,268526408,335048920,481294836]},"geometry":{"type":"LineString","coordinates":[[-77.8877316,40.7976122],[-77.8878742,40.797615],[-77.8879299,40.7976135],[-77.8880345,40.7976059],[-77.8881526,40.7975823],[-77.8882749,40.7975502],[-77.8889158,40.7973456],[-77.8901991,40.7969438],[-77.8907218,40.7967862],[-77.891103,40.7966636],[-77.891449,40.7965662],[-77.891795,40.7964688],[-77.8926024,40.7962715],[-77.8930456,40.7961632],[-77.8933762,40.796085],[-77.8942097,40.795883],[-77.8944148,40.7958383],[-77.8947085,40.7957759],[-77.895017,40.7957129],[-77.8951639,40.7956789],[-77.8952832,40.7956459],[-77.8954039,40.7956013],[-77.8954985,40.7955541],[-77.8955818,40.7955019],[-77.8956555,40.7954443],[-77.8957239,40.7953747],[-77.8957957,40.7952894],[-77.8958344,40.79522],[-77.8959484,40.7949565],[-77.8959727,40.794891],[-77.8960186,40.7947672],[-77.8960382,40.7947144],[-77.8961206,40.7945112],[-77.8961769,40.7943665],[-77.8962346,40.7942503],[-77.8962721,40.7941914],[-77.896311,40.7941417],[-77.8963687,40.7940777],[-77.8964404,40.7940092],[-77.8965269,40.7939437],[-77.8966107,40.7938878],[-77.8967033,40.793834],[-77.89705,40.7936594],[-77.8974253,40.7934746],[-77.898363,40.7929883],[-77.8996926,40.7923004],[-77.9004486,40.7919258],[-77.9010235,40.7916336],[-77.9015437,40.7913683],[-77.9023143,40.7909732],[-77.9037414,40.7902954],[-77.9038145,40.7902626],[-77.9052111,40.7895872],[-77.9052856,40.7895512],[-77.9062036,40.7890921],[-77.9063242,40.789049]]}},{"type":"Feature","properties":{"name":"Valley Vista Drive","osm_node_ids":[3421748218,4696399534,4742325854,476262633,476262627,3421745788,2849740850,106139643,3421748353,3421748227,7005461479,106139641,7951713597,110544486,4682672938,4682672937,106139637,4682672939,783646394,3198055674,106139633,106139631,3459974457,106139629,3459974482,3459974477,3459974466,106139627,109834336,106139625,110544419,106139621,106139619,10213278781,106008568,10213278778,106139617,7385767568,106139613,106139611,106139609,106139607,106139605,3421748300,783645138,9712807986,9712807987,9712807988,3421748344,3421748299,3421748342,594384868,3421748244,106139589,106139587,594384890,106139581,106139579,106139577,106139575,106139480,3729821124,106139573,3729822425,106139571,106139569,106139567,106139565,106139563,106139561,106139559,106139557,106139555,7956115464,3459974470,106139553,3459974708,106139550,3459974455,106139548,106139545,7956115491,2707952459,2468335330,7956115486,5697786970,106139540,106139538,106139536,3459974704,3459974486,3459974445,3459974484,2673362576,3806090305,3459974450,738182769,3459974473,3459974728,3689004476,105969879,105969877],"osm_way_ids":[35042317,175080156,262153434,262153437,262166270,338850545,338850553,338850558,474256236,474268444,474268445,481294934,788644740,788644741,1057047195,1057047196,1552111441]},"geometry":{"type":"LineString","coordinates":[[-77.9063242,40.789049],[-77.9063728,40.7891281],[-77.9067341,40.789532],[-77.9071729,40.7900538],[-77.9076153,40.7905605],[-77.9085407,40.79157],[-77.9088756,40.7919114],[-77.909043,40.792076],[-77.9094296,40.7924544],[-77.9098933,40.7928701],[-77.9102872,40.7931964],[-77.9103744,40.7932686],[-77.9103987,40.7932869],[-77.9104733,40.7933431],[-77.9107975,40.7935895],[-77.9113729,40.7939967],[-77.911993,40.794398],[-77.912411,40.794657],[-77.9124865,40.7947038],[-77.9128062,40.7948795],[-77.913747,40.795385],[-77.91388,40.795453],[-77.9146597,40.795868],[-77.9151319,40.7961301],[-77.9154038,40.7963023],[-77.9158327,40.7965919],[-77.9161777,40.7968509],[-77.916501,40.797112],[-77.9166865,40.797262],[-77.916897,40.79744],[-77.917179,40.797699],[-77.917346,40.797851],[-77.917613,40.79811],[-77.9191017,40.7996935],[-77.919152,40.799747],[-77.9191963,40.7997937],[-77.920143,40.800793],[-77.9206639,40.8013144],[-77.921197,40.801848],[-77.921422,40.802022],[-77.921534,40.802094],[-77.921688,40.802191],[-77.921833,40.802273],[-77.9219133,40.802322],[-77.921951,40.802345],[-77.9221439,40.8024613],[-77.9223837,40.8026272],[-77.9225404,40.8027604],[-77.9226857,40.8029075],[-77.922983,40.8032046],[-77.9234062,40.8036346],[-77.9242328,40.8044424],[-77.9248391,40.805055],[-77.925356,40.80557],[-77.925732,40.805957],[-77.9258939,40.8061449],[-77.9260202,40.8063096],[-77.926136,40.806491],[-77.926216,40.806643],[-77.926313,40.806901],[-77.926388,40.807192],[-77.9264636,40.807424],[-77.9264926,40.8075287],[-77.9265103,40.8076119],[-77.9265182,40.8076932],[-77.9265087,40.8078285],[-77.9264827,40.8079916],[-77.926418,40.808214],[-77.926301,40.808469],[-77.926223,40.808615],[-77.926139,40.808748],[-77.9259971,40.8089395],[-77.9259306,40.8090086],[-77.9258566,40.8090857],[-77.9258423,40.8091006],[-77.9257068,40.8092223],[-77.9256059,40.8093142],[-77.925499,40.809412],[-77.9253796,40.8094984],[-77.925198,40.809614],[-77.925001,40.809722],[-77.9246513,40.8099082],[-77.9245706,40.8099512],[-77.9244916,40.8099899],[-77.9244021,40.8100386],[-77.9243681,40.8100571],[-77.9242338,40.8101302],[-77.9241348,40.8102055],[-77.9240185,40.8103143],[-77.9239254,40.8104164],[-77.923821,40.8105575],[-77.923702,40.8107137],[-77.9236126,40.810814],[-77.9234871,40.810949],[-77.9233886,40.8110609],[-77.9231617,40.8113188],[-77.9231313,40.8113661],[-77.9230753,40.8114495],[-77.922999,40.8115545],[-77.9226737,40.8119631],[-77.9225927,40.8120647],[-77.9225175,40.8121573]]}},{"type":"Feature","properties":{"name":"North Atherton Street","osm_node_ids":[105969877,105976837,1652893037,5697786972,2682639130,106241036,2682639126,106241034,2682639120,106241031,106241028,106241026,2682639112,2682639111,106241023,106241021,106241019,106241015,106241013,2684467335,3460024088,2684467345,1652893030,1652893027,1652893023,7802481020,106110568,7802481022,1652893019,3421748212,1652893016,1652893014,7802481034,110907480,2701838107,1652893008,2701838090,2701838078,2701838076,106128880,2701838048,1652893006,7802481074,436000218],"osm_way_ids":[152472806,152472814,152472815,152472816,261745702,338850552,338850560,338853969,338853971,361984608]},"geometry":{"type":"LineString","coordinates":[[-77.9225175,40.8121573],[-77.9223536,40.8120844],[-77.9222792,40.8120517],[-77.9222217,40.8120265],[-77.9215141,40.8117162],[-77.92124,40.811596],[-77.9210766,40.8115297],[-77.920875,40.811448],[-77.9205539,40.8113301],[-77.920146,40.8111905],[-77.919685,40.811046],[-77.919222,40.810927],[-77.9192046,40.8109233],[-77.9188823,40.8108553],[-77.918649,40.810806],[-77.917933,40.810689],[-77.917122,40.810584],[-77.91655,40.810522],[-77.9158442,40.8104418],[-77.9157313,40.8104223],[-77.9156483,40.8104017],[-77.9155794,40.8103842],[-77.9154223,40.8103506],[-77.914952,40.8102954],[-77.9144314,40.8102336],[-77.9143623,40.8102257],[-77.9142145,40.8102088],[-77.9140655,40.8101887],[-77.9138359,40.8101601],[-77.9135441,40.8101268],[-77.9133795,40.8101069],[-77.9128791,40.8100456],[-77.9119578,40.8099351],[-77.9111848,40.8098424],[-77.9106427,40.8097787],[-77.9103262,40.8097416],[-77.9102658,40.8097345],[-77.9099003,40.8096915],[-77.9097203,40.8096704],[-77.9092234,40.809612],[-77.9089475,40.8095786],[-77.9082317,40.8094919],[-77.9081774,40.8094852],[-77.9080369,40.8094678]]}},{"type":"Feature","properties":{"name":"Colonnade Boulevard","osm_node_ids":[436000218,3047507551,106153835,106153833,3421745770,2662542633,3669142425,106153830,106153826,2685104622,3047507615,2662482854,106153822,106153819,106153817,13888130031,106153816,106153813,106153812,13888130039,13888130040,13888130044,13888130037,13888130043,13888130041,13888130042,13888130034,13888130035,2668985236,106153804,3047508737,106153800,106153797,106153795,2667933996,106153785,2467979383,106153780,106153774,2667933894,106153752,2662482895,13888130045,13888130047,13888130048,13888130050,13888130049,3047508805,2662515742,2662515755,2662515761,3047508948,13888130051,2662515768,7307691540,7307691542,7307691541,5529428596,5529428598,2662515773,7306876758,3252492986,2662515776,5529428611,2894420532,2894420533,5529428612,7307696831,7307696808,7307696836,106153695],"osm_way_ids":[260705337,261167017,261167045,261167176,261266435,362645942,417629250,601403961,782492670,782564872,1523515877]},"geometry":{"type":"LineString","coordinates":[[-77.9080369,40.8094678],[-77.9080105,40.8096094],[-77.9080038,40.8096533],[-77.9079695,40.8098173],[-77.9079424,40.8099132],[-77.907907,40.8100027],[-77.9078947,40.8100231],[-77.907854,40.8100903],[-77.9077701,40.810198],[-77.9076473,40.810261],[-77.9076179,40.8102769],[-77.9075347,40.8103219],[-77.9074704,40.8103651],[-77.9073148,40.8104321],[-77.9070792,40.8105089],[-77.9068892,40.8105715],[-77.9068426,40.8105868],[-77.9066286,40.8106661],[-77.906459,40.8107628],[-77.9063563,40.8108274],[-77.9062711,40.8108833],[-77.9061894,40.8109437],[-77.9061252,40.8109971],[-77.9060149,40.8110969],[-77.9059109,40.8111829],[-77.9057896,40.8112856],[-77.9057363,40.8113307],[-77.9056968,40.8113664],[-77.9053146,40.8117644],[-77.9051602,40.8119354],[-77.9051104,40.811985],[-77.9049992,40.8120958],[-77.9048382,40.8122713],[-77.9047605,40.812378],[-77.9047136,40.812454],[-77.9046857,40.8125254],[-77.9046171,40.8127642],[-77.9045795,40.8129043],[-77.9045398,40.8130602],[-77.9044883,40.8131641],[-77.9044206,40.8132518],[-77.9043178,40.8133865],[-77.9042271,40.8134909],[-77.904105,40.8136097],[-77.9039923,40.8136973],[-77.9039376,40.8137344],[-77.9038484,40.813791],[-77.9037009,40.8138631],[-77.903165,40.8141601],[-77.9029042,40.8143038],[-77.9024354,40.8145497],[-77.9023416,40.8146048],[-77.9023023,40.8146272],[-77.9017204,40.8149727],[-77.9015264,40.8150898],[-77.9014689,40.8151286],[-77.9014094,40.8151715],[-77.9013556,40.81521],[-77.9012324,40.8152947],[-77.9011452,40.8153512],[-77.9010785,40.8153916],[-77.9010098,40.8154332],[-77.9008824,40.8155053],[-77.9007731,40.8155631],[-77.9006521,40.8156204],[-77.9002701,40.8158032],[-77.9000616,40.8159001],[-77.8995641,40.8161315],[-77.8995115,40.8161545],[-77.8993899,40.8162078],[-77.8992811,40.8162543]]}},{"type":"Feature","properties":{"name":"Waddle Road","osm_node_ids":[106153695,7307696846,5347575797,4455923674,4455923675,5347575796,7307691549,4455923677,5347575795,5347575794,7307696850,4455923678,4455923679,7307691550,4455923682,7307696812,105962953,7307696813,5750816262,5347575789,2894420537,4597213875,7307691579,106241318],"osm_way_ids":[37091968,285812255,448588340,448588342,448588345,507986351,516930643,782564858,782564859,782564860,782564861,782564862]},"geometry":{"type":"LineString","coordinates":[[-77.8992811,40.8162543],[-77.899337,40.816318],[-77.8994937,40.8164964],[-77.8996003,40.8166299],[-77.8996834,40.8167456],[-77.8997981,40.8169328],[-77.8998239,40.8169842],[-77.8998953,40.8171262],[-77.9000261,40.8174347],[-77.9001206,40.8176575],[-77.9002292,40.8179188],[-77.9002722,40.8180112],[-77.9004385,40.8184054],[-77.9005056,40.8185633],[-77.9007859,40.8192231],[-77.9008593,40.8194017],[-77.9009985,40.8195212],[-77.9010405,40.8196161],[-77.9010567,40.8196497],[-77.9012158,40.8200236],[-77.9012552,40.8201253],[-77.9014939,40.8207504],[-77.9017031,40.8212508],[-77.9018152,40.8215186]]}},{"type":"Feature","properties":{"name":"Toftrees Avenue","osm_node_ids":[106241318,13600194499,106241313,106241310,4682192961,106241307,2664340693,106241304,106241300,106241297,106241295,2664319277,106241292,106241290,106241287,3723718783,106241284,106241281,106241279,5531765119,106241277,106241274,106189022,3723718784,739179528,106241271,106241268,739179484,106241266,739179494,739179569,106241264,3723718786,106241261,106241259,106021897,106241255,2410500626,2664309991,3723709086,5018116878,739179536,106241250,5336088282,739179564,106241248,5336088281,106241245,739179533,106241243,106241241,106241239,106241235,106241233,4682192963,4682192962,106241231,7192338120,7192338119,410800817,2668017262,2668017223,2668017276,2668017258,2668017218,2668017251,2668017215,2668017236,2668017278,2668017261,2668017238,2668017222,2668017282,2668017263,2668017217,2668017287,2685916369,2668017235,2668017267,2668017243,2668017268,2668017281,2668017293,2668017242,2668017254,2668017288,2668017279,2668017225,2668017280,3663755367,3663755368,2668017245,2668017234,2668017285,2668017283,3055652289,2668017292,2668017265,2668017221,3055652290,2668017257,2668985239,2668017252,3734655735,2668017224,1224767863,2668017291,2668017269,2668017284,2668017246,2668017290,2668017240,410800795,2653103300,2668985241,410800794,2663601487,2663601522,3055652292,410800792,2663601507,410800791,2663601478,410800790,410800789,2663601494,2663601538,410800788,410800787,2663601526,410800786,410800785,2653100086,410800784,2668111805,2668111810,2668111808,2668111809,2668111799,2668111804,2668111812,5008539478,2669490915,410800783,410705543],"osm_way_ids":[259852171,259852174,259852176,261172661,261176599,261176602,261177170,261266436,261266437,261266438,261266440,262946922,262946924,379860922,474215686,474215687,770549231,783476949]},"geometry":{"type":"LineString","coordinates":[[-77.9018152,40.8215186],[-77.9016864,40.8215582],[-77.901612,40.821581],[-77.901221,40.821717],[-77.9010927,40.8217553],[-77.900843,40.82183],[-77.9007322,40.8218673],[-77.90057,40.821922],[-77.900404,40.821989],[-77.9002345,40.8220819],[-77.9000851,40.8221944],[-77.8999561,40.8223007],[-77.8999097,40.8223399],[-77.899749,40.822461],[-77.899536,40.822606],[-77.8993287,40.8227194],[-77.89926,40.822757],[-77.899002,40.822862],[-77.8988161,40.8229254],[-77.8986394,40.8229776],[-77.898462,40.82302],[-77.898187,40.823068],[-77.89718,40.8232051],[-77.8970179,40.8232257],[-77.8968391,40.8232483],[-77.89639,40.823311],[-77.895474,40.823442],[-77.8949181,40.8235427],[-77.894839,40.823557],[-77.8942627,40.8237017],[-77.8941333,40.8237368],[-77.893995,40.823772],[-77.8938065,40.8238101],[-77.893602,40.823836],[-77.8934719,40.8238448],[-77.8929566,40.8238326],[-77.892141,40.823778],[-77.8920882,40.8237735],[-77.8920175,40.8237675],[-77.891659,40.8237373],[-77.8911579,40.823706],[-77.8908551,40.8236815],[-77.8904808,40.8236549],[-77.8903138,40.8236462],[-77.8901689,40.8236418],[-77.8899169,40.8236426],[-77.8896581,40.8236553],[-77.8894622,40.8236716],[-77.8893331,40.8236839],[-77.88866,40.823752],[-77.888382,40.823767],[-77.888246,40.823767],[-77.8878893,40.8237533],[-77.8876406,40.8237229],[-77.8873468,40.8236741],[-77.8870679,40.8236153],[-77.8867672,40.8235559],[-77.8866762,40.8235371],[-77.8866191,40.8235253],[-77.886504,40.8235024],[-77.8863455,40.8234881],[-77.8862677,40.8234799],[-77.8861765,40.8234683],[-77.8860471,40.8234581],[-77.8859586,40.8234546],[-77.8858539,40.8234541],[-77.8857386,40.8234581],[-77.88564,40.8234652],[-77.8855307,40.8234769],[-77.8854147,40.8234947],[-77.8852987,40.823517],[-77.8852008,40.8235408],[-77.885105,40.823568],[-77.8850017,40.8236017],[-77.8848729,40.8236504],[-77.8847757,40.823692],[-77.8846945,40.8237322],[-77.884632,40.823765],[-77.8845354,40.8238185],[-77.8844352,40.8238821],[-77.8843334,40.8239516],[-77.8842096,40.8240295],[-77.8841055,40.8240941],[-77.8839985,40.824163],[-77.8839087,40.8242137],[-77.8838168,40.8242598],[-77.8837062,40.8243065],[-77.8835871,40.8243534],[-77.8834044,40.824409],[-77.8832335,40.8244543],[-77.8828492,40.8245516],[-77.8825749,40.8246231],[-77.8823936,40.8246735],[-77.8821825,40.8247324],[-77.8820349,40.8247832],[-77.8819386,40.8248247],[-77.8819022,40.8248404],[-77.8817382,40.8249162],[-77.8815086,40.8250406],[-77.8814939,40.8250505],[-77.8812952,40.8251853],[-77.8812501,40.8252174],[-77.8809263,40.8254399],[-77.8808493,40.8255025],[-77.8808117,40.8255331],[-77.880614,40.8256768],[-77.8805111,40.8257997],[-77.8804374,40.8259134],[-77.8803799,40.8260104],[-77.8803343,40.8261107],[-77.880293,40.8262278],[-77.8802417,40.8264185],[-77.8802231,40.8264869],[-77.880202,40.8265586],[-77.8801718,40.8266684],[-77.8801285,40.8267598],[-77.8800119,40.8268942],[-77.879936,40.8270017],[-77.8799172,40.8270256],[-77.8798364,40.8271278],[-77.8797555,40.8272159],[-77.8796756,40.8272912],[-77.8795721,40.8273763],[-77.879433,40.8274681],[-77.8793029,40.8275494],[-77.8791263,40.8276293],[-77.8789784,40.827689],[-77.8788473,40.8277352],[-77.8786993,40.8277755],[-77.8785268,40.8278113],[-77.8783591,40.827836],[-77.8781096,40.8278703],[-77.8777682,40.8279211],[-77.8775153,40.8279798],[-77.8773254,40.8280063],[-77.8772108,40.8280244],[-77.8770493,40.8280709],[-77.8769534,40.8281088],[-77.8768617,40.8281537],[-77.8767784,40.8282073],[-77.8767054,40.8282578],[-77.8766051,40.8283481],[-77.8765821,40.8283688],[-77.8765665,40.8283832],[-77.8765001,40.8284487]]}},{"type":"Feature","properties":{"name":"Fox Hollow Road","osm_node_ids":[410705543,3663858520,5008539479,106089920,7816483471,106089922,106089927,3784098873,106089929,106089933,106089937,106089941,106089943,106089946,106089950,106089956,106089958,106089961,106089967,106089969,410705407,106089980,106089982,106089995,106090002,2727942100,4503655914,106090007,106090010,4409032312,106090016,4409032237,106090019,2727936261,3052755259,2727936259,106090021,106090024,2727936255,106090030,106090032,106090035,105979685],"osm_way_ids":[261174379,261176598]},"geometry":{"type":"LineString","coordinates":[[-77.8765001,40.8284487],[-77.8763902,40.8283987],[-77.876327,40.8283701],[-77.876225,40.828324],[-77.8749416,40.8277563],[-77.874258,40.827454],[-77.8737691,40.8272381],[-77.8736685,40.8271938],[-77.873018,40.82689],[-77.871781,40.826336],[-77.8708932,40.8259115],[-77.870649,40.825765],[-77.870441,40.825631],[-77.870095,40.825392],[-77.8698701,40.8252148],[-77.86971,40.825077],[-77.8695443,40.8249206],[-77.869192,40.824549],[-77.8686806,40.823948],[-77.86855,40.8238],[-77.8682869,40.8234798],[-77.868164,40.823337],[-77.8680434,40.8231959],[-77.8677833,40.8229187],[-77.867462,40.822624],[-77.8670866,40.8223278],[-77.8666302,40.8220187],[-77.866548,40.821963],[-77.86484,40.820947],[-77.864762,40.8209013],[-77.86383,40.820355],[-77.8633285,40.8200824],[-77.863236,40.8200321],[-77.862955,40.8198797],[-77.8623207,40.8195473],[-77.8612098,40.8189668],[-77.860702,40.818699],[-77.860326,40.818523],[-77.8602251,40.818484],[-77.859584,40.818236],[-77.859268,40.818081],[-77.859053,40.817956],[-77.858886,40.817848]]}},{"type":"Feature","properties":{"name":"Orchard Road","osm_node_ids":[105979685,105979687,105979691,4291089868,2818027383,105979696,106222163,13312792081,106222165,106222167,106222171,106003630,106222173,106222175,2719775980,106222177,106172792,4719388683,4409032176,106222179,600888312,4409032194,106172801,411079369,106222183,4409032301,106139659,106222186,106222188,106222193,106222195,106080754,106222198,2719776008,4409032285,106222200,106222202,4409032226,423557783,106222205,106222207,106222210,106222212,4409032136,4409032133,106222214,3052494233,106222218,3052494234,7592671955,106222221,106222223,106222224,423557320,423557304,106222229,106222231,3052483222,106222234,106222236,423557306,106222239,423557311,2782468326,106222242,4708731631,4708731625,2667901312,4708731630,106222244,5227269761,2700831428,2719775972,5141751219,423557337,106222254,106222256,106222259,3052483230,106222261,106222265,106222267,4682192940,106222270,105979103,106222272,106222274,106005284],"osm_way_ids":[11830403,261165125,261768233,301175676,538020117]},"geometry":{"type":"LineString","coordinates":[[-77.858886,40.817848],[-77.8587905,40.817921],[-77.8587462,40.8179663],[-77.8587044,40.8180322],[-77.8586991,40.8180405],[-77.8586813,40.8181333],[-77.858749,40.818378],[-77.8587517,40.818401],[-77.858759,40.818463],[-77.858756,40.818594],[-77.858714,40.818762],[-77.858686,40.818828],[-77.858674,40.818857],[-77.858555,40.81904],[-77.858541,40.8190534],[-77.858448,40.819142],[-77.8583641,40.8192045],[-77.8582225,40.8192972],[-77.8579811,40.8194332],[-77.857967,40.819442],[-77.8577832,40.8195518],[-77.8576725,40.8196188],[-77.8575198,40.8197114],[-77.8564289,40.8203486],[-77.855876,40.8206802],[-77.8557773,40.8207402],[-77.8552422,40.821065],[-77.8546449,40.8214104],[-77.8545212,40.8214652],[-77.8544258,40.8214794],[-77.854254,40.821417],[-77.854045,40.821274],[-77.853566,40.820947],[-77.8532631,40.8207451],[-77.8528892,40.8204959],[-77.852433,40.820192],[-77.8523236,40.8201102],[-77.8521337,40.8199349],[-77.8521112,40.8199141],[-77.852065,40.819872],[-77.851935,40.819745],[-77.851796,40.81959],[-77.851154,40.818845],[-77.8511317,40.8188234],[-77.8510988,40.8187914],[-77.850847,40.818547],[-77.8506318,40.8183696],[-77.8505115,40.8182698],[-77.8504121,40.8181929],[-77.8503764,40.8181651],[-77.8503147,40.8181171],[-77.8500776,40.8179483],[-77.8497425,40.8177326],[-77.8495663,40.8176379],[-77.8492062,40.8174592],[-77.8490212,40.8173827],[-77.8486317,40.8172402],[-77.8483945,40.8171694],[-77.8481302,40.8171019],[-77.8478898,40.8170533],[-77.8477059,40.8170196],[-77.8473023,40.8169578],[-77.8469039,40.8168979],[-77.8454862,40.8166879],[-77.8437503,40.8164268],[-77.8436581,40.8164119],[-77.8431368,40.8163277],[-77.8427856,40.816271],[-77.8427268,40.8162612],[-77.8414942,40.8160557],[-77.8412098,40.8160013],[-77.8409717,40.8159579],[-77.840569,40.8158564],[-77.8404012,40.8158149],[-77.8400898,40.8157266],[-77.839431,40.815586],[-77.839155,40.815516],[-77.839038,40.8154735],[-77.8389306,40.8154275],[-77.8388308,40.8153736],[-77.8387027,40.8152954],[-77.838649,40.8152518],[-77.8386195,40.815199],[-77.8385706,40.8150848],[-77.8383791,40.8146352],[-77.83828,40.814379],[-77.8382222,40.8142622],[-77.8381787,40.814195]]}},{"type":"Feature","properties":{"name":"Puddintown Road","osm_node_ids":[106005284,106005281,106005278,2853744560,2853744588,2853744566,106005273,106005271,106005268,106005266,106005262,106005260,2782468167,106005258,6880355096,110012671,2814663707,106005253,692298294,106005250,701672513,106005247,106005245,106005243,106005237,106005235,106005233,106005231,106005227,106005225,106005223,106005221,106005217,9693892781,106005212,106005199],"osm_way_ids":[11832771]},"geometry":{"type":"LineString","coordinates":[[-77.8381787,40.814195],[-77.8382991,40.8141351],[-77.8384439,40.8140534],[-77.8385479,40.8139873],[-77.8386417,40.8139205],[-77.8387306,40.8138538],[-77.838801,40.813782],[-77.838852,40.813709],[-77.838882,40.813627],[-77.83889,40.813573],[-77.838878,40.813397],[-77.8387769,40.8128589],[-77.8387487,40.812719],[-77.838717,40.812505],[-77.8386726,40.8122735],[-77.8385149,40.8114519],[-77.8384537,40.8111891],[-77.838451,40.811174],[-77.8384056,40.8110165],[-77.838383,40.810942],[-77.8383717,40.8109185],[-77.838329,40.81083],[-77.838235,40.810702],[-77.83819,40.810658],[-77.8380473,40.8105527],[-77.8377948,40.8103573],[-77.837675,40.810261],[-77.837464,40.8100724],[-77.8372897,40.8098782],[-77.8369064,40.8093492],[-77.836832,40.809259],[-77.836743,40.809167],[-77.836318,40.8087862],[-77.8362391,40.8086967],[-77.8361291,40.8085528],[-77.835868,40.808135]]}},{"type":"Feature","properties":{"name":"East College Avenue","osm_node_ids":[106005199,106163185,106132652,5208861955,5208861924,105973263,5654527392,110330292,3110412696,9690688055,9690688054,9690688053,9690688052,13895673711,106259149,3110412727,3110417039,106259153,106018814],"osm_way_ids":[261738190,263651469,263651489,306194857,835572250]},"geometry":{"type":"LineString","coordinates":[[-77.835868,40.808135],[-77.835539,40.808283],[-77.835161,40.80846],[-77.8350938,40.8084916],[-77.8346437,40.8087031],[-77.83418,40.808921],[-77.8338764,40.8090671],[-77.8337664,40.80912],[-77.8335143,40.8092417],[-77.8332724,40.809363],[-77.8332557,40.8093716],[-77.8327817,40.8096164],[-77.832708,40.809654],[-77.8319767,40.8100186],[-77.8319112,40.8100512],[-77.8318478,40.8100778],[-77.8314246,40.810299],[-77.8310929,40.8104932],[-77.8307681,40.8106778]]}},{"type":"Feature","properties":{"name":"Elmwood Street","osm_node_ids":[106018814,105951239,2744065987,2744065978,105951237,105951234,2744065997,105951230,2744065980,9693892975,106018765,13145061994,5208861911,7799196931,5208861921,7799196926,7799196921,7799196916,106018773,411068642,106018780,106018782,8732873559,8732873560,8732873561,2518412286,2518412279,106018793,106018795,106018797,3675697005,106018799,3675697004,2744073494,2744073495,7785608684,106018803,106018805,2849467617,106018807,106018809,110060071],"osm_way_ids":[11833571,35047791,35047792,35060875,269110262,269110264,443067464]},"geometry":{"type":"LineString","coordinates":[[-77.8307681,40.8106778],[-77.8306358,40.8105862],[-77.8305993,40.8105498],[-77.830549,40.8105067],[-77.8305024,40.8104759],[-77.8304391,40.8104445],[-77.830337,40.8104204],[-77.8302413,40.8104214],[-77.8299903,40.8104112],[-77.8298519,40.8104054],[-77.8297571,40.8103841],[-77.8297037,40.8103823],[-77.8295699,40.8103777],[-77.8291988,40.810365],[-77.829093,40.8103614],[-77.8288595,40.8103534],[-77.8286774,40.8103471],[-77.8285125,40.8103415],[-77.8272339,40.8102983],[-77.8269919,40.8102902],[-77.8254311,40.8102398],[-77.824813,40.810217],[-77.8242538,40.8102039],[-77.8238847,40.8101825],[-77.8235319,40.810151],[-77.8230161,40.8100986],[-77.8226348,40.8100745],[-77.8222442,40.8100707],[-77.821545,40.810071],[-77.8213848,40.8100608],[-77.8212693,40.8100451],[-77.8211725,40.8100231],[-77.8210741,40.809992],[-77.8210023,40.8099635],[-77.8209381,40.8099339],[-77.8207038,40.8097998],[-77.820657,40.809773],[-77.8204856,40.8096801],[-77.8204456,40.8096574],[-77.8203533,40.8096073],[-77.819746,40.8092748],[-77.8190406,40.8088954]]}},{"type":"Feature","properties":{"name":"East Branch Road","osm_node_ids":[110060071,110709644,9764955380,2744073894,110709633,110709623,455043666,110709614,455043712,110709599,8732873583,8732873582,8732873581,8732873580,8732873579,110709562,110709556,110709550,455043711,110709541,110051623,455043710,455043705,110709525,455043713,110279275,110709517,455043708,110709506,8732873564,8732873563,9711197113,8732873562,106247991,110709475,366639258,7846768953,106189902,106189899,3031040595,106189897,106189894,106189891,106189889,106189887,106189884,106189882,455591443,106189879,106189874,106189872,106189869,106189866,106189864,106058820,106189861,106189859,106189857,106189853,106189851,106189849,106189847,106189844,7005102722,106189841,106189838,106163854,106189836,106189832,106189830,106163857,8944429169,8944429168,106189826,106189824,439964760,106189822,2760033584,106090102,2760033560,106189814,2667946198,106189810,106189808,106189806,106189804,106189802,106189800,106189797,8944429231,8944429230,106189796,106189794,106189791,106189789,7964992758,106189787,13841981032,106189785,106078390,106189782,106189779,106189777,106189775,443416541,106189772,2707961101,106189770,106093164,106093167,106093169,106093171,2984742264,106093175,106093180,2737378639,14095934126,3790589169,2750535287,2737378675,106093183],"osm_way_ids":[11838000,32603861,32603863,204099544,204099545,204099546,204099547,268404279,269110259,269110267,749091123,1110070521,1110070522]},"geometry":{"type":"LineString","coordinates":[[-77.8190406,40.8088954],[-77.819116,40.808789],[-77.8192935,40.8085911],[-77.8193866,40.8084873],[-77.8195959,40.8082535],[-77.819717,40.808108],[-77.8197365,40.8080811],[-77.819807,40.807984],[-77.819931,40.807787],[-77.819979,40.807709],[-77.8201,40.807468],[-77.820205,40.807231],[-77.820287,40.807089],[-77.820385,40.806974],[-77.8204431,40.8069201],[-77.820524,40.806845],[-77.820761,40.806663],[-77.820906,40.80657],[-77.821111,40.806457],[-77.821255,40.806377],[-77.8215805,40.8062302],[-77.8221215,40.8059941],[-77.8225589,40.8058073],[-77.823218,40.805513],[-77.8233498,40.8054452],[-77.8236012,40.8052837],[-77.823851,40.805106],[-77.824857,40.804356],[-77.824955,40.804282],[-77.8250884,40.8041757],[-77.825181,40.804102],[-77.8258008,40.8035991],[-77.8261552,40.8033199],[-77.826645,40.8029464],[-77.8266667,40.8029313],[-77.827485,40.8024268],[-77.8282884,40.8019695],[-77.828602,40.801756],[-77.82888,40.801556],[-77.8290795,40.8013904],[-77.8291181,40.8013554],[-77.82923,40.8012532],[-77.830117,40.800395],[-77.830292,40.800202],[-77.830465,40.799977],[-77.830752,40.799528],[-77.831062,40.799012],[-77.8310907,40.7989559],[-77.831123,40.798893],[-77.831205,40.798634],[-77.831332,40.797582],[-77.831358,40.79746],[-77.831428,40.797242],[-77.831561,40.796973],[-77.831768,40.79663],[-77.83189,40.796465],[-77.832002,40.796336],[-77.832133,40.796216],[-77.832503,40.795923],[-77.832781,40.795691],[-77.832989,40.79547],[-77.833108,40.795323],[-77.833399,40.794928],[-77.8335124,40.7947476],[-77.83357,40.794656],[-77.83361,40.794567],[-77.8336258,40.7945186],[-77.833639,40.794478],[-77.833658,40.794397],[-77.8336744,40.7943155],[-77.8336836,40.7942379],[-77.8336858,40.7941629],[-77.833681,40.7940879],[-77.833663,40.793976],[-77.833594,40.793748],[-77.833429,40.7934024],[-77.833336,40.7932],[-77.8331387,40.7928312],[-77.8330883,40.7927291],[-77.8330381,40.792633],[-77.8329656,40.7924871],[-77.8327321,40.7919943],[-77.832636,40.791822],[-77.8325595,40.7916822],[-77.8324526,40.7914627],[-77.832382,40.791269],[-77.832341,40.791144],[-77.8323205,40.7910535],[-77.8323076,40.790974],[-77.8323019,40.7908717],[-77.8322937,40.7907508],[-77.8323018,40.7906052],[-77.8323016,40.7905632],[-77.8323142,40.790479],[-77.832358,40.790279],[-77.8324116,40.7901443],[-77.832459,40.790025],[-77.8325891,40.7897561],[-77.832609,40.789715],[-77.83278,40.789395],[-77.832876,40.789235],[-77.833226,40.788727],[-77.833362,40.78848],[-77.833789,40.787474],[-77.8339878,40.7870776],[-77.834014,40.787005],[-77.8340469,40.7869249],[-77.83413,40.786723],[-77.834189,40.786547],[-77.83425,40.786364],[-77.834287,40.786206],[-77.834314,40.786083],[-77.8343299,40.7859695],[-77.8343343,40.7859382],[-77.8343485,40.7856406],[-77.8343557,40.785565],[-77.8343649,40.7854562],[-77.8343753,40.7853474],[-77.8343795,40.7852999],[-77.8343867,40.7852356],[-77.8344016,40.7851331]]}},{"type":"Feature","properties":{"name":"South Atherton Street","osm_node_ids":[106093183,3790589167,2141165179,5654224130,14095934111,4468034731,106209550,14095934112,106209549,2737378707,106209547,14095934113,2737378685,106209545,3722024834,3415395981],"osm_way_ids":[204099548,204099549,268408941,339271714]},"geometry":{"type":"LineString","coordinates":[[-77.8344016,40.7851331],[-77.8345668,40.7851463],[-77.8352668,40.7852042],[-77.835578,40.7852307],[-77.8356955,40.7852398],[-77.8357194,40.7852414],[-77.8358372,40.7852491],[-77.835987,40.7852588],[-77.8361244,40.7852671],[-77.8362654,40.785273],[-77.8364089,40.7852751],[-77.8365865,40.7852731],[-77.8366277,40.7852719],[-77.8368223,40.7852631],[-77.8368896,40.7852587],[-77.8370234,40.7852455]]}},{"type":"Feature","properties":{"name":"University Drive","osm_node_ids":[3415395981,3415395973,3415396005,2737378637,2737378647,110561388,109881306,443416548,110561399,110561411,110561421,110561430,110561438,110561453,110561464,110561472,4468055670,110561483,110561491,110561500,110561511,110561524,110561534,110561537,110561547,110561559,110561566,110561575,110561586,110561597,110561605,5202489071,110561617,110561628,3415395934,110561635,110561640,110561646,110561651,3415395947,110176171,3415396011,110561659,110561667,2738624426,110561677,2738624424,110561688,2738624453,110561698,110561714,425668597,110561723,110561733,110561744,3415395988,110561758,3328730501,110561764,110561777,110561784,110464127],"osm_way_ids":[261802102,268404276,268404277,268404289,864653250]},"geometry":{"type":"LineString","coordinates":[[-77.8370234,40.7852455],[-77.8369608,40.7851765],[-77.8369217,40.7851331],[-77.8368141,40.785005],[-77.8364712,40.7845736],[-77.8362912,40.7843213],[-77.8362144,40.7841917],[-77.8361458,40.7840558],[-77.8360899,40.7839348],[-77.8360085,40.7837425],[-77.8359774,40.7836093],[-77.8359532,40.7835157],[-77.8359299,40.7833755],[-77.8359157,40.7831779],[-77.835928,40.782959],[-77.835943,40.782814],[-77.8359575,40.7827426],[-77.835987,40.782597],[-77.83603,40.782452],[-77.836114,40.782243],[-77.836142,40.782191],[-77.836187,40.782101],[-77.836242,40.782012],[-77.836314,40.781896],[-77.8363595,40.7818191],[-77.8364368,40.7817231],[-77.836632,40.781514],[-77.83682,40.781338],[-77.837026,40.781176],[-77.837216,40.781049],[-77.8384865,40.7803018],[-77.8392687,40.7798486],[-77.839922,40.77947],[-77.840458,40.779164],[-77.8427387,40.7778189],[-77.8432166,40.7775411],[-77.8435699,40.7773541],[-77.8436906,40.7772924],[-77.843948,40.7771884],[-77.8442006,40.7771],[-77.8443452,40.7770525],[-77.844501,40.7770139],[-77.844681,40.7769703],[-77.8449426,40.7769014],[-77.8452,40.7768542],[-77.8454451,40.776821],[-77.8456517,40.7767973],[-77.8458673,40.776783],[-77.8460979,40.7767753],[-77.846416,40.776778],[-77.8472585,40.7767941],[-77.8478337,40.7767966],[-77.848295,40.7768113],[-77.848819,40.7768183],[-77.8491551,40.7768098],[-77.8494753,40.7767843],[-77.849729,40.776746],[-77.8499493,40.7767087],[-77.8501,40.776674],[-77.850458,40.776571],[-77.8507284,40.7764629],[-77.8509558,40.7763557]]}},{"type":"Feature","properties":{"name":"West Whitehall Road","osm_node_ids":[110464127,106116730,106116732,8059268139,8059268138,106116736,106116740,106116744,2705260802,2705260794,106116746,106116748,106116751,13298911174,110464235,106116757,106116759,106116761,106116765,106116766,4638776889,4612543134,3721939480,110280443,3721939244,106116768,6974912015,6974912018,106116771,4638776890,2816822161,106116775,4469032341,4469032338,106116777,106095649,13171576942,4612543887,4416567475,2738646960,2738646952,4638776891,9820157036,783645865],"osm_way_ids":[11839937,469577582,469577586,469577588,469577590,469577596,864653249,1449952118]},"geometry":{"type":"LineString","coordinates":[[-77.8509558,40.7763557],[-77.8512173,40.7762281],[-77.8514533,40.776091],[-77.8518112,40.7758638],[-77.8519928,40.7757182],[-77.8521062,40.7756144],[-77.8522184,40.7755072],[-77.852325,40.7753903],[-77.8525195,40.7751729],[-77.8525785,40.7750978],[-77.8528749,40.7747124],[-77.8530231,40.7745372],[-77.8531062,40.7744422],[-77.8531207,40.774427],[-77.8531585,40.7743874],[-77.85322,40.774323],[-77.8533243,40.774217],[-77.8534211,40.7741246],[-77.8535881,40.7739692],[-77.8537979,40.7737859],[-77.8541473,40.7734877],[-77.8543042,40.7733538],[-77.8545593,40.773135],[-77.854674,40.7730385],[-77.8547814,40.772948],[-77.8550019,40.7727814],[-77.8550387,40.7727569],[-77.855071,40.7727354],[-77.8551594,40.7726765],[-77.8552596,40.7726143],[-77.8553391,40.772568],[-77.8555329,40.7724549],[-77.8559459,40.7722196],[-77.856286,40.7720307],[-77.856333,40.7720035],[-77.8571291,40.7715642],[-77.8575793,40.7713127],[-77.8582243,40.7709524],[-77.85861,40.7707363],[-77.859573,40.7702098],[-77.859687,40.7701458],[-77.8599407,40.7700037],[-77.8605841,40.7696432],[-77.8607162,40.7695692]]}}]}
